{"type": "FeatureCollection", "features": [ {"type": "Feature", "properties": {"norad_id": 36551, "name": "COSMOS 2251 DEB", "group": "cosmos-2251-debris", "lat": 54.607938688225225, "lon": 12.857311253421877, "alt_km": 571.0849318635646, "timestamp": "2025-12-25T07:00:34.445640+00:00", "meta": {"OBJECT_NAME": "COSMOS 2251 DEB", "OBJECT_ID": "1993-036BDM", "EPOCH": "2025-12-23T08:25:21.362880", "MEAN_MOTION": 15.02881194, "ECCENTRICITY": 0.00509794, "INCLINATION": 73.8872, "RA_OF_ASC_NODE": 352.8451, "ARG_OF_PERICENTER": 300.1612, "MEAN_ANOMALY": 59.4529, "EPHEMERIS_TYPE": 0, "CLASSIFICATION_TYPE": "U", "NORAD_CAT_ID": 36551, "ELEMENT_SET_NO": 999, "REV_AT_EPOCH": 67091, "BSTAR": 0.0013038883, "MEAN_MOTION_DOT": 0.00017997, "MEAN_MOTION_DDOT": 0}, "tle": {"line1": "1 36551U 93036BDM 25357.35094170  .00017997  00000+0  13039-2 0  9992", "line2": "2 36551  73.8872 352.8451 0050979 300.1612  59.4529 15.02881194670914"}}, "geometry": {"type": "Point", "coordinates": [12.857311253421877, 54.607938688225225]}}, {"type": "Feature", "properties": {"norad_id": 36557, "name": "COSMOS 2251 DEB", "group": "cosmos-2251-debris", "lat": 25.639472056778487, "lon": 109.42742941750707, "alt_km": 642.0151273212423, "timestamp": "2025-12-25T07:00:34.445650+00:00", "meta": {"OBJECT_NAME": "COSMOS 2251 DEB", "OBJECT_ID": "1993-036BDT", "EPOCH": "2025-12-22T00:57:08.479008", "MEAN_MOTION": 14.78653832, "ECCENTRICITY": 0.00212002, "INCLINATION": 73.9802, "RA_OF_ASC_NODE": 107.9136, "ARG_OF_PERICENTER": 260.6795, "MEAN_ANOMALY": 99.1983, "EPHEMERIS_TYPE": 0, "CLASSIFICATION_TYPE": "U", "NORAD_CAT_ID": 36557, "ELEMENT_SET_NO": 999, "REV_AT_EPOCH": 34034, "BSTAR": 0.0038224462, "MEAN_MOTION_DOT": 0.00028203, "MEAN_MOTION_DDOT": 0}, "tle": {"line1": "1 36557U 93036BDT 25356.03968147  .00028203  00000+0  38224-2 0  9991", "line2": "2 36557  73.9802 107.9136 0021200 260.6795  99.1983 14.78653832340344"}}, "geometry": {"type": "Point", "coordinates": [109.42742941750707, 25.639472056778487]}}, {"type": "Feature", "properties": {"norad_id": 36558, "name": "COSMOS 2251 DEB", "group": "cosmos-2251-debris", "lat": 0.8828052781931482, "lon": 131.03128486506063, "alt_km": 717.4284409704205, "timestamp": "2025-12-25T07:00:34.445660+00:00", "meta": {"OBJECT_NAME": "COSMOS 2251 DEB", "OBJECT_ID": "1993-036BDU", "EPOCH": "2025-12-23T15:24:48.606336", "MEAN_MOTION": 14.55435357, "ECCENTRICITY": 0.00125723, "INCLINATION": 74.043, "RA_OF_ASC_NODE": 133.9013, "ARG_OF_PERICENTER": 222.7204, "MEAN_ANOMALY": 137.2983, "EPHEMERIS_TYPE": 0, "CLASSIFICATION_TYPE": "U", "NORAD_CAT_ID": 36558, "ELEMENT_SET_NO": 999, "REV_AT_EPOCH": 85427, "BSTAR": 0.00094757292, "MEAN_MOTION_DOT": 4.097e-05, "MEAN_MOTION_DDOT": 0}, "tle": {"line1": "1 36558U 93036BDU 25357.64222924  .00004097  00000+0  94757-3 0  9995", "line2": "2 36558  74.0430 133.9013 0012572 222.7204 137.2983 14.55435357854274"}}, "geometry": {"type": "Point", "coordinates": [131.03128486506063, 0.8828052781931482]}}, {"type": "Feature", "properties": {"norad_id": 36559, "name": "COSMOS 2251 DEB", "group": "cosmos-2251-debris", "lat": -2.0575845277136056, "lon": -12.223538747964191, "alt_km": 732.8988023690172, "timestamp": "2025-12-25T07:00:34.445670+00:00", "meta": {"OBJECT_NAME": "COSMOS 2251 DEB", "OBJECT_ID": "1993-036BDV", "EPOCH": "2025-12-20T23:46:37.184160", "MEAN_MOTION": 13.9527233, "ECCENTRICITY": 0.0261353, "INCLINATION": 74.1312, "RA_OF_ASC_NODE": 355.7104, "ARG_OF_PERICENTER": 25.9739, "MEAN_ANOMALY": 335.4239, "EPHEMERIS_TYPE": 0, "CLASSIFICATION_TYPE": "U", "NORAD_CAT_ID": 36559, "ELEMENT_SET_NO": 999, "REV_AT_EPOCH": 81209, "BSTAR": 0.0030098689, "MEAN_MOTION_DOT": 5.397e-05, "MEAN_MOTION_DDOT": 0}, "tle": {"line1": "1 36559U 93036BDV 25354.99070815  .00005397  00000+0  30099-2 0  9993", "line2": "2 36559  74.1312 355.7104 0261353  25.9739 335.4239 13.95272330812092"}}, "geometry": {"type": "Point", "coordinates": [-12.223538747964191, -2.0575845277136056]}}, {"type": "Feature", "properties": {"norad_id": 36614, "name": "COSMOS 2251 DEB", "group": "cosmos-2251-debris", "lat": -57.07438386895229, "lon": -3.138922619335091, "alt_km": 688.1854746601093, "timestamp": "2025-12-25T07:00:34.445680+00:00", "meta": {"OBJECT_NAME": "COSMOS 2251 DEB", "OBJECT_ID": "1993-036BEC", "EPOCH": "2025-12-24T03:36:20.359296", "MEAN_MOTION": 14.60407947, "ECCENTRICITY": 0.00156222, "INCLINATION": 74.0227, "RA_OF_ASC_NODE": 152.7827, "ARG_OF_PERICENTER": 222.6098, "MEAN_ANOMALY": 137.3857, "EPHEMERIS_TYPE": 0, "CLASSIFICATION_TYPE": "U", "NORAD_CAT_ID": 36614, "ELEMENT_SET_NO": 999, "REV_AT_EPOCH": 65779, "BSTAR": 0.0017157176, "MEAN_MOTION_DOT": 8.302e-05, "MEAN_MOTION_DDOT": 0}, "tle": {"line1": "1 36614U 93036BEC 25358.15023564  .00008302  00000+0  17157-2 0  9995", "line2": "2 36614  74.0227 152.7827 0015622 222.6098 137.3857 14.60407947657791"}}, "geometry": {"type": "Point", "coordinates": [-3.138922619335091, -57.07438386895229]}}, {"type": "Feature", "properties": {"norad_id": 36622, "name": "COSMOS 2251 DEB", "group": "cosmos-2251-debris", "lat": -52.66040367508226, "lon": 98.79275172273815, "alt_km": 616.657585998636, "timestamp": "2025-12-25T07:00:34.445690+00:00", "meta": {"OBJECT_NAME": "COSMOS 2251 DEB", "OBJECT_ID": "1993-036BEL", "EPOCH": "2025-12-24T01:59:12.142752", "MEAN_MOTION": 14.76299213, "ECCENTRICITY": 0.00689018, "INCLINATION": 74.0149, "RA_OF_ASC_NODE": 123.2338, "ARG_OF_PERICENTER": 256.4441, "MEAN_ANOMALY": 102.9052, "EPHEMERIS_TYPE": 0, "CLASSIFICATION_TYPE": "U", "NORAD_CAT_ID": 36622, "ELEMENT_SET_NO": 999, "REV_AT_EPOCH": 66917, "BSTAR": 0.00077654532, "MEAN_MOTION_DOT": 5.567e-05, "MEAN_MOTION_DDOT": 0}, "tle": {"line1": "1 36622U 93036BEL 25358.08277943  .00005567  00000+0  77655-3 0  9998", "line2": "2 36622  74.0149 123.2338 0068901 256.4441 102.9052 14.76299213669170"}}, "geometry": {"type": "Point", "coordinates": [98.79275172273815, -52.66040367508226]}}, {"type": "Feature", "properties": {"norad_id": 36632, "name": "COSMOS 2251 DEB", "group": "cosmos-2251-debris", "lat": 51.0545682874737, "lon": -70.1994990810676, "alt_km": 724.9021261831449, "timestamp": "2025-12-25T07:00:34.445701+00:00", "meta": {"OBJECT_NAME": "COSMOS 2251 DEB", "OBJECT_ID": "1993-036BEW", "EPOCH": "2025-12-23T01:31:35.391648", "MEAN_MOTION": 14.43225962, "ECCENTRICITY": 0.00327185, "INCLINATION": 74.0013, "RA_OF_ASC_NODE": 273.1539, "ARG_OF_PERICENTER": 18.5865, "MEAN_ANOMALY": 341.6478, "EPHEMERIS_TYPE": 0, "CLASSIFICATION_TYPE": "U", "NORAD_CAT_ID": 36632, "ELEMENT_SET_NO": 999, "REV_AT_EPOCH": 65364, "BSTAR": 0.0008144408, "MEAN_MOTION_DOT": 2.732e-05, "MEAN_MOTION_DDOT": 0}, "tle": {"line1": "1 36632U 93036BEW 25357.06360407  .00002732  00000+0  81444-3 0  9996", "line2": "2 36632  74.0013 273.1539 0032718  18.5865 341.6478 14.43225962653646"}}, "geometry": {"type": "Point", "coordinates": [-70.1994990810676, 51.0545682874737]}}, {"type": "Feature", "properties": {"norad_id": 37084, "name": "COSMOS 2251 DEB", "group": "cosmos-2251-debris", "lat": 31.42837818402017, "lon": -54.20295865940844, "alt_km": 533.6984395050549, "timestamp": "2025-12-25T07:00:34.445710+00:00", "meta": {"OBJECT_NAME": "COSMOS 2251 DEB", "OBJECT_ID": "1993-036BFE", "EPOCH": "2025-12-24T15:57:16.760448", "MEAN_MOTION": 15.01180609, "ECCENTRICITY": 0.00968203, "INCLINATION": 74.0273, "RA_OF_ASC_NODE": 137.155, "ARG_OF_PERICENTER": 214.9103, "MEAN_ANOMALY": 144.5712, "EPHEMERIS_TYPE": 0, "CLASSIFICATION_TYPE": "U", "NORAD_CAT_ID": 37084, "ELEMENT_SET_NO": 999, "REV_AT_EPOCH": 66446, "BSTAR": 0.00075136281, "MEAN_MOTION_DOT": 0.00010628, "MEAN_MOTION_DDOT": 0}, "tle": {"line1": "1 37084U 93036BFE 25358.66477732  .00010628  00000+0  75136-3 0  9999", "line2": "2 37084  74.0273 137.1550 0096820 214.9103 144.5712 15.01180609664465"}}, "geometry": {"type": "Point", "coordinates": [-54.20295865940844, 31.42837818402017]}}, {"type": "Feature", "properties": {"norad_id": 37085, "name": "COSMOS 2251 DEB", "group": "cosmos-2251-debris", "lat": -68.43353780752429, "lon": 141.90673863426312, "alt_km": 442.4194839737429, "timestamp": "2025-12-25T07:00:34.445721+00:00", "meta": {"OBJECT_NAME": "COSMOS 2251 DEB", "OBJECT_ID": "1993-036BFF", "EPOCH": "2025-12-13T09:00:31.802112", "MEAN_MOTION": 15.41681601, "ECCENTRICITY": 0.00213151, "INCLINATION": 73.9479, "RA_OF_ASC_NODE": 214.6598, "ARG_OF_PERICENTER": 52.8263, "MEAN_ANOMALY": 307.4887, "EPHEMERIS_TYPE": 0, "CLASSIFICATION_TYPE": "U", "NORAD_CAT_ID": 37085, "ELEMENT_SET_NO": 999, "REV_AT_EPOCH": 67147, "BSTAR": 0.0024657072, "MEAN_MOTION_DOT": 0.00106285, "MEAN_MOTION_DDOT": 0}, "tle": {"line1": "1 37085U 93036BFF 25347.37536808  .00106285  00000+0  24657-2 0  9992", "line2": "2 37085  73.9479 214.6598 0021315  52.8263 307.4887 15.41681601671472"}}, "geometry": {"type": "Point", "coordinates": [141.90673863426312, -68.43353780752429]}}, {"type": "Feature", "properties": {"norad_id": 37089, "name": "COSMOS 2251 DEB", "group": "cosmos-2251-debris", "lat": -27.44972704954, "lon": 113.50324498417136, "alt_km": 755.2750509013849, "timestamp": "2025-12-25T07:00:34.445731+00:00", "meta": {"OBJECT_NAME": "COSMOS 2251 DEB", "OBJECT_ID": "1993-036BFK", "EPOCH": "2025-12-21T15:34:23.731392", "MEAN_MOTION": 14.53121083, "ECCENTRICITY": 0.0134841, "INCLINATION": 74.0377, "RA_OF_ASC_NODE": 128.9285, "ARG_OF_PERICENTER": 227.2834, "MEAN_ANOMALY": 131.6914, "EPHEMERIS_TYPE": 0, "CLASSIFICATION_TYPE": "U", "NORAD_CAT_ID": 37089, "ELEMENT_SET_NO": 999, "REV_AT_EPOCH": 66239, "BSTAR": 0.0022471011, "MEAN_MOTION_DOT": 0.00010467, "MEAN_MOTION_DDOT": 0}, "tle": {"line1": "1 37089U 93036BFK 25355.64888578  .00010467  00000+0  22471-2 0  9997", "line2": "2 37089  74.0377 128.9285 0134841 227.2834 131.6914 14.53121083662390"}}, "geometry": {"type": "Point", "coordinates": [113.50324498417136, -27.44972704954]}}]}